ONEWEB-0674             
1 55833U 23029AP  25307.79580134 -.00000201  00000+0 -57693-3 0  9991
2 55833  87.8999 334.6391 0001608 108.4661 251.6643 13.14499802129804
ONEWEB-0675             
1 55834U 23029AQ  25307.87972467 -.00000052  00000+0 -16260-3 0  9994
2 55834  87.9224 349.8210 0002043  89.6537 270.4830 13.19724491129202
ONEWEB-0720             
1 55835U 23029AR  25307.49275331 -.00000243  00000+0 -64042-3 0  9992
2 55835  87.9232 349.8956 0002218 104.7270 255.4109 13.19723615129070
ONEWEB-0537             
1 56046U 23043A   25307.40762061 -.00000062  00000+0 -19460-3 0  9998
2 56046  87.9004 273.7382 0001979  77.5665 282.5688 13.16595696129254
ONEWEB-0538             
1 56047U 23043B   25307.62928995 -.00000014  00000+0 -69386-4 0  9993
2 56047  87.8998 273.7008 0002212  81.3166 278.8216 13.16594867129299
ONEWEB-0546             
1 56048U 23043C   25307.61661333  .00000071  00000+0  15091-3 0  9997
2 56048  87.9006 273.6907 0001926  61.9662 298.1663 13.16596079129281
ONEWEB-0547             
1 56049U 23043D   25307.90067978  .00000111  00000+0  23617-3 0  9993
2 56049  87.9171 288.9163 0002049  88.9269 271.2100 13.21825961128465
ONEWEB-0548             
1 56050U 23043E   25307.64195157 -.00000049  00000+0 -16269-3 0  9994
2 56050  87.8986 273.6989 0001462  91.3866 268.7432 13.16595119129289
